NORAD_CAT_ID,OBJECT_NAME,OBJECT_TYPE,EPOCH,MEAN_MOTION,ECCENTRICITY,INCLINATION,RA_OF_ASC_NODE,ARG_OF_PERICENTER,MEAN_ANOMALY,BSTAR,MEAN_MOTION_DOT,MEAN_MOTION_DDOT,TLE_LINE0,TLE_LINE1,TLE_LINE2,SEMIMAJOR_AXIS,PERIOD,APOGEE,PERIGEE,DECAYED
53835.0,STARLINK-4783,PAYLOAD,2024-06-07 09:47:51,15.0882774,0.0001343,53.2091,298.2409,75.1843,284.9298,0.00012408,1.687e-05,0.0,0 STARLINK-4783,1 53835U 22114T   24159.40823387  .00001687  00000-0  12408-3 0  9990,2 53835  53.2091 298.2409 0001343  75.1843 284.9298 15.08827740 95636,6917.918,95.438,540.712,538.854,0.0
53835.0,STARLINK-4783,PAYLOAD,2024-06-07 16:09:23,15.08831802,0.000138,53.2144,297.0533,79.9406,280.1742,0.00010831,1.436e-05,0.0,0 STARLINK-4783,1 53835U 22114T   24159.67319386  .00001436  00000-0  10831-3 0  9998,2 53835  53.2144 297.0533 0001380  79.9406 280.1742 15.08831802 96219,6917.905,95.438,540.725,538.816,0.0
53835.0,STARLINK-4783,PAYLOAD,2024-06-08 19:10:57,15.08844374,0.0001456,53.2119,291.9966,86.8511,273.2648,-0.00015462,-2.748e-05,0.0,0 STARLINK-4783,1 53835U 22114T   24160.79927103 -.00002748  00000-0 -15462-3 0  9999,2 53835  53.2119 291.9966 0001456  86.8511 273.2648 15.08844374 95846,6917.867,95.437,540.739,538.725,0.0
53835.0,STARLINK-4783,PAYLOAD,2024-06-09 01:32:30,15.08837348,0.0001813,53.2184,290.8079,82.0213,278.0985,0.00015591,2.194e-05,0.0,0 STARLINK-4783,1 53835U 22114T   24161.06423638  .00002194  00000-0  15591-3 0  9990,2 53835  53.2184 290.8079 0001813  82.0213 278.0985 15.08837348 95889,6917.888,95.438,541.008,538.499,0.0
53835.0,STARLINK-4783,PAYLOAD,2024-06-09 09:29:26,15.08831597,0.0001114,53.2219,289.3251,80.8319,279.2799,2.4618e-05,1.04e-06,0.0,0 STARLINK-4783,1 53835U 22114T   24161.39544119  .00000104  00000-0  24618-4 0  9994,2 53835  53.2219 289.3251 0001114  80.8319 279.2799 15.08831597 96472,6917.906,95.438,540.542,539.0,0.0
53835.0,STARLINK-4783,PAYLOAD,2024-06-09 17:26:21,15.08836218,0.0001287,53.2217,287.8381,81.973,278.1409,7.5808e-05,9.19e-06,0.0,0 STARLINK-4783,1 53835U 22114T   24161.72664074  .00000919  00000-0  75808-4 0  9995,2 53835  53.2217 287.8381 0001287  81.9730 278.1409 15.08836218 96524,6917.892,95.438,540.647,538.867,0.0
53835.0,STARLINK-4783,PAYLOAD,2024-06-10 12:30:58,15.08849438,0.0001675,53.2225,284.2705,93.6329,266.4855,3.0699e-05,2.01e-06,0.0,0 STARLINK-4783,1 53835U 22114T   24162.52151550  .00000201  00000-0  30699-4 0  9997,2 53835  53.2225 284.2705 0001675  93.6329 266.4855 15.08849438 96106,6917.852,95.437,540.875,538.558,0.0
53835.0,STARLINK-4783,PAYLOAD,2024-06-10 14:06:21,15.08850992,0.0001546,53.2207,283.9729,90.6989,269.418,5.5218e-05,5.91e-06,0.0,0 STARLINK-4783,1 53835U 22114T   24162.58775461  .00000591  00000-0  55218-4 0  9992,2 53835  53.2207 283.9729 0001546  90.6989 269.4180 15.08850992 96655,6917.847,95.437,540.781,538.642,0.0
53835.0,STARLINK-4783,PAYLOAD,2024-06-10 15:41:45,15.08852127,0.0001608,53.2179,283.6732,77.5089,282.6083,0.00033263,5.011e-05,0.0,0 STARLINK-4783,1 53835U 22114T   24162.65399455  .00005011  00000-0  33263-3 0  9992,2 53835  53.2179 283.6732 0001608  77.5089 282.6083 15.08852127 96660,6917.843,95.437,540.821,538.596,0.0
53835.0,STARLINK-4783,PAYLOAD,2024-06-11 13:57:09,15.08847178,0.0001464,53.2175,279.5109,85.9556,274.1603,0.00016155,2.285e-05,0.0,0 STARLINK-4783,1 53835U 22114T   24163.58135420  .00002285  00000-0  16155-3 0  9996,2 53835  53.2175 279.5109 0001464  85.9556 274.1603 15.08847178 96800,6917.858,95.437,540.736,538.711,0.0
53835.0,STARLINK-4783,PAYLOAD,2024-06-12 01:04:51,15.08842535,0.0001419,53.2188,277.4265,75.7236,284.3913,5.5051e-05,5.88e-06,0.0,0 STARLINK-4783,1 53835U 22114T   24164.04503557  .00000588  00000-0  55051-4 0  9991,2 53835  53.2188 277.4265 0001419  75.7236 284.3913 15.08842535 96333,6917.873,95.437,540.719,538.756,0.0
53835.0,STARLINK-4783,PAYLOAD,2024-06-12 13:47:56,15.08837682,0.0001255,53.2161,275.0487,82.3351,277.7783,-0.00013776,-2.479e-05,0.0,0 STARLINK-4783,1 53835U 22114T   24164.57495861 -.00002479  00000-0 -13776-3 0  9997,2 53835  53.2161 275.0487 0001255  82.3351 277.7783 15.08837682 96411,6917.887,95.438,540.621,538.884,0.0
53835.0,STARLINK-4783,PAYLOAD,2024-06-13 13:38:43,15.08846883,0.0001292,53.2175,270.5901,80.134,279.9798,0.00024317,3.585e-05,0.0,0 STARLINK-4783,1 53835U 22114T   24165.56855600  .00003585  00000-0  24317-3 0  9998,2 53835  53.2175 270.5901 0001292  80.1340 279.9798 15.08846883 96561,6917.859,95.437,540.618,538.831,0.0
53835.0,STARLINK-4783,PAYLOAD,2024-06-14 13:29:30,15.08835389,0.0001203,53.217,266.1277,77.9509,282.1618,0.00018861,2.715e-05,0.0,0 STARLINK-4783,1 53835U 22114T   24166.56216303  .00002715  00000-0  18861-3 0  9991,2 53835  53.2170 266.1277 0001203  77.9509 282.1618 15.08835389 97259,6917.894,95.438,540.592,538.927,0.0
53835.0,STARLINK-4783,PAYLOAD,2024-06-14 16:40:16,15.08838937,0.000125,53.2168,265.5329,76.9682,283.145,8.0232e-05,9.89e-06,0.0,0 STARLINK-4783,1 53835U 22114T   24166.69464082  .00000989  00000-0  80232-4 0  9997,2 53835  53.2168 265.5329 0001250  76.9682 283.1450 15.08838937 97279,6917.884,95.438,540.613,538.884,0.0
53835.0,STARLINK-4783,PAYLOAD,2024-06-15 13:20:16,15.08853507,0.0001158,53.2179,261.6703,79.1569,280.9553,0.00012471,1.698e-05,0.0,0 STARLINK-4783,1 53835U 22114T   24167.55575041  .00001698  00000-0  12471-3 0  9998,2 53835  53.2179 261.6703 0001158  79.1569 280.9553 15.08853507 97404,6917.839,95.437,540.505,538.903,0.0
53835.0,STARLINK-4783,PAYLOAD,2024-06-15 16:31:02,15.08858401,0.0001181,53.2164,261.0739,76.6058,283.5065,0.00022607,3.314e-05,0.0,0 STARLINK-4783,1 53835U 22114T   24167.68822778  .00003314  00000-0  22607-3 0  9993,2 53835  53.2164 261.0739 0001181  76.6058 283.5065 15.08858401 97429,6917.824,95.436,540.506,538.872,0.0
53835.0,STARLINK-4783,PAYLOAD,2024-06-16 13:11:04,15.088408,0.0001259,53.2164,257.2093,87.8415,272.2722,4.8093e-05,4.78e-06,0.0,0 STARLINK-4783,1 53835U 22114T   24168.54935665  .00000478  00000-0  48093-4 0  9995,2 53835  53.2164 257.2093 0001259  87.8415 272.2722 15.08840800 97559,6917.878,95.438,540.614,538.872,0.0
53835.0,STARLINK-4783,PAYLOAD,2024-06-16 22:43:23,15.08837553,0.0001229,53.2161,255.4245,86.7267,273.3866,-2.4728e-05,-6.81e-06,0.0,0 STARLINK-4783,1 53835U 22114T   24168.94679824 -.00000681  00000-0 -24728-4 0  9998,2 53835  53.2161 255.4245 0001229  86.7267 273.3866 15.08837553 97614,6917.888,95.438,540.603,538.903,0.0
53835.0,STARLINK-4783,PAYLOAD,2024-06-17 22:34:10,15.0883952,0.0001289,53.216,250.9643,83.5344,276.5795,1.3102e-06,-2.67e-06,0.0,0 STARLINK-4783,1 53835U 22114T   24169.94040060 -.00000267  00000-0  13102-5 0  9997,2 53835  53.2160 250.9643 0001289  83.5344 276.5795 15.08839520 97760,6917.882,95.438,540.639,538.855,0.0
53835.0,STARLINK-4783,PAYLOAD,2024-06-18 12:52:39,15.08828606,0.0001456,53.2166,248.288,86.8226,273.2933,0.0003848,5.84e-05,0.0,0 STARLINK-4783,1 53835U 22114T   24170.53656932  .00005840  00000-0  38480-3 0  9990,2 53835  53.2166 248.2880 0001456  86.8226 273.2933 15.08828606 97312,6917.915,95.438,540.787,538.773,0.0
53835.0,STARLINK-4783,PAYLOAD,2024-06-18 22:24:57,15.08840154,0.0001408,53.2165,246.5034,82.8736,277.2416,7.969e-05,9.81e-06,0.0,0 STARLINK-4783,1 53835U 22114T   24170.93400431  .00000981  00000-0  79690-4 0  9995,2 53835  53.2165 246.5034 0001408  82.8736 277.2416 15.08840154 97910,6917.88,95.438,540.719,538.771,0.0
53835.0,STARLINK-4783,PAYLOAD,2024-06-19 11:08:03,15.08830921,0.0001267,53.2155,244.1244,87.8632,272.2505,0.00029771,4.452e-05,0.0,0 STARLINK-4783,1 53835U 22114T   24171.46393178  .00004452  00000-0  29771-3 0  9994,2 53835  53.2155 244.1244 0001267  87.8632 272.2505 15.08830921 97453,6917.908,95.438,540.65,538.897,0.0
53835.0,STARLINK-4783,PAYLOAD,2024-06-20 10:58:49,15.08848034,0.000126,53.2158,239.6638,86.6815,273.4321,0.00017466,2.494e-05,0.0,0 STARLINK-4783,1 53835U 22114T   24172.45751883  .00002494  00000-0  17466-3 0  9997,2 53835  53.2158 239.6638 0001260  86.6815 273.4321 15.08848034 98145,6917.856,95.437,540.592,538.849,0.0
53835.0,STARLINK-4783,PAYLOAD,2024-06-21 04:28:04,15.0883544,0.0001642,53.2177,236.3904,103.3479,256.7696,0.00023815,3.504e-05,0.0,0 STARLINK-4783,1 53835U 22114T   24173.18616685  .00003504  00000-0  23815-3 0  9996,2 53835  53.2177 236.3904 0001642 103.3479 256.7696 15.08835440 97711,6917.894,95.438,540.895,538.623,0.0
53835.0,STARLINK-4783,PAYLOAD,2024-06-21 10:49:37,15.08840287,0.000152,53.2179,235.2023,100.433,259.6834,2.2444e-05,6.9e-07,0.0,0 STARLINK-4783,1 53835U 22114T   24173.45112495  .00000069  00000-0  22444-4 0  9997,2 53835  53.2179 235.2023 0001520 100.4330 259.6834 15.08840287 98297,6917.88,95.438,540.796,538.693,0.0
53835.0,STARLINK-4783,PAYLOAD,2024-06-22 09:05:01,15.08839935,0.0001488,53.2174,231.0395,100.2963,259.8197,1.8218e-05,2e-08,0.0,0 STARLINK-4783,1 53835U 22114T   24174.37848435  .00000002  00000-0  18218-4 0  9990,2 53835  53.2174 231.0395 0001488 100.2963 259.8197 15.08839935 97898,6917.881,95.438,540.775,538.716,0.0
53835.0,STARLINK-4783,PAYLOAD,2024-06-23 10:31:11,15.08834533,0.0001354,53.2169,226.2828,95.696,264.4186,4.6728e-05,4.56e-06,0.0,0 STARLINK-4783,1 53835U 22114T   24175.43832932  .00000456  00000-0  46728-4 0  9993,2 53835  53.2169 226.2828 0001354  95.6960 264.4186 15.08834533 98053,6917.897,95.438,540.699,538.825,0.0
53835.0,STARLINK-4783,PAYLOAD,2024-06-24 08:46:35,15.08840092,0.00013,53.2167,222.1191,90.5106,269.6035,8.7126e-05,1.099e-05,0.0,0 STARLINK-4783,1 53835U 22114T   24176.36568621  .00001099  00000-0  87126-4 0  9998,2 53835  53.2167 222.1191 0001300  90.5106 269.6035 15.08840092 98738,6917.88,95.438,540.644,538.846,0.0
53835.0,STARLINK-4783,PAYLOAD,2024-06-25 10:12:46,15.0883492,0.0001336,53.2169,217.3617,88.9893,271.1252,3.3799e-05,2.5e-06,0.0,0 STARLINK-4783,1 53835U 22114T   24177.42553405  .00000250  00000-0  33799-4 0  9995,2 53835  53.2169 217.3617 0001336  88.9893 271.1252 15.08834920 98352,6917.896,95.438,540.685,538.837,0.0
